{"fetched_at":"2026-03-29T02:12:04Z","count":15717,"tles":[{"name":"COSMOS 2588","line1":"1 64095U 25109A   26087.71690948  .00014609  00000+0  51149-3 0  9990","line2":"2 64095  72.9728  30.7359 0005275 277.5478  82.5119 15.29512841 47316","category":"Other"}]}